$$SOE
2460154.500000000, A.D. 2023-Jul-29 00:00:00.0000, 4.989113028950496E+08, -1.226362737190080E+08, 7.489805977371749E+07,
2460161.500000000, A.D. 2023-Aug-05 00:00:00.0000, 5.018095477426896E+08, -1.142278612748100E+08, 7.156475212618129E+07,
2460168.500000000, A.D. 2023-Aug-12 00:00:00.0000, 5.045341125679253E+08, -1.057797984852466E+08, 6.820665343436474E+07,
2460175.500000000, A.D. 2023-Aug-19 00:00:00.0000, 5.070844516339279E+08, -9.729509238714948E+07, 6.482498058667657E+07,
2460182.500000000, A.D. 2023-Aug-26 00:00:00.0000, 5.094600757215121E+08, -8.877674804485869E+07, 6.142095224806288E+07,
2460189.500000000, A.D. 2023-Sep-02 00:00:00.0000, 5.116605517018591E+08, -8.022776781330401E+07, 5.799578854588695E+07,
2460196.500000000, A.D. 2023-Sep-09 00:00:00.0000, 5.136855021202424E+08, -7.165115073266628E+07, 5.455071075105934E+07,
2460203.500000000, A.D. 2023-Sep-16 00:00:00.0000, 5.155346049584176E+08, -6.304989211191209E+07, 5.108694093374439E+07,
2460210.500000000, A.D. 2023-Sep-23 00:00:00.0000, 5.172075939912915E+08, -5.442698301302329E+07, 4.760570157852560E+07,
2460217.500000000, A.D. 2023-Sep-30 00:00:00.0000, 5.187042593984926E+08, -4.578540844303656E+07, 4.410821528757427E+07,
2460224.500000000, A.D. 2023-Oct-07 00:00:00.0000, 5.200244462795118E+08, -3.712814479518486E+07, 4.059570474404681E+07,
2460231.500000000, A.D. 2023-Oct-14 00:00:00.0000, 5.211680521147937E+08, -2.845815985263808E+07, 3.706939257008670E+07,
2460238.500000000, A.D. 2023-Oct-21 00:00:00.0000, 5.221350264018025E+08, -1.977841375245460E+07, 3.353050091421970E+07,
2460245.500000000, A.D. 2023-Oct-28 00:00:00.0000, 5.229253710419416E+08, -1.109185864916150E+07, 2.998025108349127E+07,
2460252.500000000, A.D. 2023-Nov-04 00:00:00.0000, 5.235391402290482E+08, -2.401437848010991E+06, 2.641986327215483E+07,
2460259.500000000, A.D. 2023-Nov-11 00:00:00.0000, 5.239764400175942E+08, 6.289914992395161E+06, 2.285055632164657E+07,
2460266.500000000, A.D. 2023-Nov-18 00:00:00.0000, 5.242374277903803E+08, 1.497927652407013E+07, 1.927354748644153E+07,
2460273.500000000, A.D. 2023-Nov-25 00:00:00.0000, 5.243223116987350E+08, 2.366373426314083E+07, 1.569005220090942E+07,
2460280.500000000, A.D. 2023-Dec-02 00:00:00.0000, 5.242313501036001E+08, 3.234038702213673E+07, 1.210128384359711E+07,
2460287.500000000, A.D. 2023-Dec-09 00:00:00.0000, 5.239648510955938E+08, 4.100634516255517E+07, 8.508453486853674E+06,
2460294.500000000, A.D. 2023-Dec-16 00:00:00.0000, 5.235231723816335E+08, 4.965873068045243E+07, 4.912769606206201E+06,
2460301.500000000, A.D. 2023-Dec-23 00:00:00.0000, 5.229067218858725E+08, 5.829467781280480E+07, 1.315437773354936E+06,
2460308.500000000, A.D. 2023-Dec-30 00:00:00.0000, 5.221159577241811E+08, 6.691133521514033E+07, -2.282339458775580E+06,
2460315.500000000, A.D. 2024-Jan-06 00:00:00.0000, 5.211513857811255E+08, 7.550586735087727E+07, -5.879362509444680E+06,
2460322.500000000, A.D. 2024-Jan-13 00:00:00.0000, 5.200135580632139E+08, 8.407545328515843E+07, -9.474435001115967E+06,
2460329.500000000, A.D. 2024-Jan-20 00:00:00.0000, 5.187030730511016E+08, 9.261728596776277E+07, -1.306636412880321E+07,
2460336.500000000, A.D. 2024-Jan-27 00:00:00.0000, 5.172205760215588E+08, 1.011285726580901E+08, -1.665396092876036E+07,
2460343.500000000, A.D. 2024-Feb-03 00:00:00.0000, 5.155667589110571E+08, 1.096065355443079E+08, -2.023604048510397E+07,
2460350.500000000, A.D. 2024-Feb-10 00:00:00.0000, 5.137423599985897E+08, 1.180484122660591E+08, -2.381142212396630E+07,
2460357.500000000, A.D. 2024-Feb-17 00:00:00.0000, 5.117481635465670E+08, 1.264514563491414E+08, -2.737892960759458E+07,
2460364.500000000, A.D. 2024-Feb-24 00:00:00.0000, 5.095849994358465E+08, 1.348129375674633E+08, -3.093739133079869E+07,
2460371.500000000, A.D. 2024-Mar-02 00:00:00.0000, 5.072537428244342E+08, 1.431301422003036E+08, -3.448564052538135E+07,
2460378.500000000, A.D. 2024-Mar-09 00:00:00.0000, 5.047553139689735E+08, 1.514003731224808E+08, -3.802251549071426E+07,
2460385.500000000, A.D. 2024-Mar-16 00:00:00.0000, 5.020906786044344E+08, 1.596209499248163E+08, -4.154685987089272E+07,
2460392.500000000, A.D. 2024-Mar-23 00:00:00.0000, 4.992608487776294E+08, 1.677892101740527E+08, -4.505752287851289E+07,
2460399.500000000, A.D. 2024-Mar-30 00:00:00.0000, 4.962668818928596E+08, 1.759025117867225E+08, -4.855335926173694E+07,
2460406.500000000, A.D. 2024-Apr-06 00:00:00.0000, 4.931098782273517E+08, 1.839582331506305E+08, -5.203322931366206E+07,
2460413.500000000, A.D. 2024-Apr-13 00:00:00.0000, 4.897909804685409E+08, 1.919537718299673E+08, -5.549599918180831E+07,
2460420.500000000, A.D. 2024-Apr-20 00:00:00.0000, 4.863113743202885E+08, 1.998865445303697E+08, -5.894054117184071E+07,
2460427.500000000, A.D. 2024-Apr-27 00:00:00.0000, 4.826722886605235E+08, 2.077539877626943E+08, -6.236573395235972E+07,
2460434.500000000, A.D. 2024-May-04 00:00:00.0000, 4.788749953378322E+08, 2.155535585021505E+08, -6.577046272635730E+07,
2460441.500000000, A.D. 2024-May-11 00:00:00.0000, 4.749208088445112E+08, 2.232827347410958E+08, -6.915361939941400E+07,
2460448.500000000, A.D. 2024-May-18 00:00:00.0000, 4.708110859469817E+08, 2.309390159577380E+08, -7.251410275014207E+07,
2460455.500000000, A.D. 2024-May-25 00:00:00.0000, 4.665472252975000E+08, 2.385199234949132E+08, -7.585081860546574E+07,
2460462.500000000, A.D. 2024-Jun-01 00:00:00.0000, 4.621306670870081E+08, 2.460230007932023E+08, -7.916268003081539E+07,
2460469.500000000, A.D. 2024-Jun-08 00:00:00.0000, 4.575628929862902E+08, 2.534458134568884E+08, -8.244860755982317E+07,
2460476.500000000, A.D. 2024-Jun-15 00:00:00.0000, 4.528454267758119E+08, 2.607859496983262E+08, -8.570752945579113E+07,
2460483.500000000, A.D. 2024-Jun-22 00:00:00.0000, 4.479798346586073E+08, 2.680410223357162E+08, -8.893838181652273E+07,
2460490.500000000, A.D. 2024-Jun-29 00:00:00.0000, 4.429677231340744E+08, 2.752086705245199E+08, -9.214010847651553E+07,
2460497.500000000, A.D. 2024-Jul-06 00:00:00.0000, 4.378107370788689E+08, 2.822865587524051E+08, -9.531166115142727E+07,
2460504.500000000, A.D. 2024-Jul-13 00:00:00.0000, 4.325105599842474E+08, 2.892723759211776E+08, -9.845199977294108E+07,
2460511.500000000, A.D. 2024-Jul-20 00:00:00.0000, 4.270689143629785E+08, 2.961638356640980E+08, -1.015600927377961E+08,
2460518.500000000, A.D. 2024-Jul-27 00:00:00.0000, 4.214875616690671E+08, 3.029586769395494E+08, -1.046349170891951E+08,
2460525.500000000, A.D. 2024-Aug-03 00:00:00.0000, 4.157683020028504E+08, 3.096546645266175E+08, -1.076754586864200E+08,
2460532.500000000, A.D. 2024-Aug-10 00:00:00.0000, 4.099129737669035E+08, 3.162495894186523E+08, -1.106807123784640E+08,
2460539.500000000, A.D. 2024-Aug-17 00:00:00.0000, 4.039234533197289E+08, 3.227412691371452E+08, -1.136496821845357E+08,
2460546.500000000, A.D. 2024-Aug-24 00:00:00.0000, 3.978016546547255E+08, 3.291275479443835E+08, -1.165813814861465E+08,
2460553.500000000, A.D. 2024-Aug-31 00:00:00.0000, 3.915495292198040E+08, 3.354062968942158E+08, -1.194748332468313E+08,
2460560.500000000, A.D. 2024-Sep-07 00:00:00.0000, 3.851690662431342E+08, 3.415754138480399E+08, -1.223290702832274E+08,
2460567.500000000, A.D. 2024-Sep-14 00:00:00.0000, 3.786622936501474E+08, 3.476328244519476E+08, -1.251431355143408E+08,
2460574.500000000, A.D. 2024-Sep-21 00:00:00.0000, 3.720312775417299E+08, 3.535764844873696E+08, -1.279160819690447E+08,
2460581.500000000, A.D. 2024-Sep-28 00:00:00.0000, 3.652781197452147E+08, 3.594043803689877E+08, -1.306469727710745E+08,
2460588.500000000, A.D. 2024-Oct-05 00:00:00.0000, 3.584049571088206E+08, 3.651145277928362E+08, -1.333348814389266E+08,
2460595.500000000, A.D. 2024-Oct-12 00:00:00.0000, 3.514139621790080E+08, 3.707049715142204E+08, -1.359788922243257E+08,
2460602.500000000, A.D. 2024-Oct-19 00:00:00.0000, 3.443073435089876E+08, 3.761737859844561E+08, -1.385781003506532E+08,
2460609.500000000, A.D. 2024-Oct-26 00:00:00.0000, 3.370873455655043E+08, 3.815190760453751E+08, -1.411316122138728E+08,
2460616.500000000, A.D. 2024-Nov-02 00:00:00.0000, 3.297562484909566E+08, 3.867389775335615E+08, -1.436385455817050E+08,
2460623.500000000, A.D. 2024-Nov-09 00:00:00.0000, 3.223163678171361E+08, 3.918316578153235E+08, -1.460980297981589E+08,
2460630.500000000, A.D. 2024-Nov-16 00:00:00.0000, 3.147700541560669E+08, 3.967953162530131E+08, -1.485092059956443E+08,
2460637.500000000, A.D. 2024-Nov-23 00:00:00.0000, 3.071196929143633E+08, 4.016281845532996E+08, -1.508712273229311E+08,
2460644.500000000, A.D. 2024-Nov-30 00:00:00.0000, 2.993677042389485E+08, 4.063285269555020E+08, -1.531832592115824E+08,
2460651.500000000, A.D. 2024-Dec-07 00:00:00.0000, 2.915165436134775E+08, 4.108946406814092E+08, -1.554444796852483E+08,
2460658.500000000, A.D. 2024-Dec-14 00:00:00.0000, 2.835687024168926E+08, 4.153248578705630E+08, -1.576540795487596E+08,
2460665.500000000, A.D. 2024-Dec-21 00:00:00.0000, 2.755267061246080E+08, 4.196175477597786E+08, -1.598112623452158E+08,
2460672.500000000, A.D. 2024-Dec-28 00:00:00.0000, 2.673931121241340E+08, 4.237711161406526E+08, -1.619152445046284E+08,
2460679.500000000, A.D. 2025-Jan-04 00:00:00.0000, 2.591705097432395E+08, 4.277840044716504E+08, -1.639652557287202E+08,
2460686.500000000, A.D. 2025-Jan-11 00:00:00.0000, 2.508615206692860E+08, 4.316546903033164E+08, -1.659605393085321E+08,
2460693.500000000, A.D. 2025-Jan-18 00:00:00.0000, 2.424687988416301E+08, 4.353816880969900E+08, -1.679003523647771E+08,
2460700.500000000, A.D. 2025-Jan-25 00:00:00.0000, 2.339950300594069E+08, 4.389635499625520E+08, -1.697839660713938E+08,
2460707.500000000, A.D. 2025-Feb-01 00:00:00.0000, 2.254429314933398E+08, 4.423988662856336E+08, -1.716106658819207E+08,
2460714.500000000, A.D. 2025-Feb-08 00:00:00.0000, 2.168152511595297E+08, 4.456862662646531E+08, -1.733797517625718E+08,
2460721.500000000, A.D. 2025-Feb-15 00:00:00.0000, 2.081147673839163E+08, 4.488244183381666E+08, -1.750905384365665E+08,
$$EOE